{
  "type": "FeatureCollection",
  "features": [
    {
      "type": "Feature",
      "properties": {
        "norad_id": 30480,
        "name": "FENGYUN 1C DEB",
        "group": "fengyun-1c-debris",
        "lat": -12.112572845908545,
        "lon": 179.4606526361026,
        "alt_km": 699.6134755134299,
        "timestamp": "2025-12-12T09:49:09.008239+00:00",
        "meta_object_name": "FENGYUN 1C DEB",
        "meta_object_id": "1999-025AGS",
        "meta_epoch": "2025-12-12T00:40:23.810304",
        "meta_mean_motion": 14.33598045,
        "meta_eccentricity": 0.016636,
        "meta_inclination": 98.2241,
        "meta_ra_of_asc_node": 0.8769,
        "meta_arg_of_pericenter": 147.7737,
        "meta_mean_anomaly": 237.409,
        "meta_ephemeris_type": 0,
        "meta_classification_type": "U",
        "meta_norad_cat_id": 30480,
        "meta_element_set_no": 999,
        "meta_rev_at_epoch": 98658,
        "meta_bstar": 0.00031028,
        "meta_mean_motion_dot": 9.59e-06,
        "meta_mean_motion_ddot": 0,
        "tle_line1": "1 30480U 99025AGS 25346.02805336  .00000959  00000+0  31028-3 0  9996",
        "tle_line2": "2 30480  98.2241   0.8769 0166360 147.7737 237.4090 14.33598045986584"
      },
      "geometry": {
        "type": "Point",
        "coordinates": [
          179.4606526361026,
          -12.112572845908545
        ]
      }
    },
    {
      "type": "Feature",
      "properties": {
        "norad_id": 30481,
        "name": "FENGYUN 1C DEB",
        "group": "fengyun-1c-debris",
        "lat": -60.64687655718842,
        "lon": 18.835771835600006,
        "alt_km": 640.8912310594988,
        "timestamp": "2025-12-12T09:49:09.008249+00:00",
        "meta_object_name": "FENGYUN 1C DEB",
        "meta_object_id": "1999-025AGT",
        "meta_epoch": "2025-12-12T00:20:42.208224",
        "meta_mean_motion": 14.39033289,
        "meta_eccentricity": 0.0223028,
        "meta_inclination": 98.337,
        "meta_ra_of_asc_node": 3.3377,
        "meta_arg_of_pericenter": 262.1675,
        "meta_mean_anomaly": 150.7602,
        "meta_ephemeris_type": 0,
        "meta_classification_type": "U",
        "meta_norad_cat_id": 30481,
        "meta_element_set_no": 999,
        "meta_rev_at_epoch": 98473,
        "meta_bstar": 0.00085949,
        "meta_mean_motion_dot": 3.5e-05,
        "meta_mean_motion_ddot": 0,
        "tle_line1": "1 30481U 99025AGT 25346.01437741  .00003500  00000+0  85949-3 0  9993",
        "tle_line2": "2 30481  98.3370   3.3377 0223028 262.1675 150.7602 14.39033289984731"
      },
      "geometry": {
        "type": "Point",
        "coordinates": [
          18.835771835600006,
          -60.64687655718842
        ]
      }
    },
    {
      "type": "Feature",
      "properties": {
        "norad_id": 30486,
        "name": "FENGYUN 1C DEB",
        "group": "fengyun-1c-debris",
        "lat": 50.21586744636989,
        "lon": 9.892938594727179,
        "alt_km": 218.80366403654716,
        "timestamp": "2025-12-12T09:49:09.008261+00:00",
        "meta_object_name": "FENGYUN 1C DEB",
        "meta_object_id": "1999-025AGY",
        "meta_epoch": "2025-12-12T00:42:33.816384",
        "meta_mean_motion": 16.17395034,
        "meta_eccentricity": 0.0009437,
        "meta_inclination": 98.7877,
        "meta_ra_of_asc_node": 20.0883,
        "meta_arg_of_pericenter": 216.4342,
        "meta_mean_anomaly": 143.63,
        "meta_ephemeris_type": 0,
        "meta_classification_type": "U",
        "meta_norad_cat_id": 30486,
        "meta_element_set_no": 999,
        "meta_rev_at_epoch": 1743,
        "meta_bstar": 0.003024,
        "meta_mean_motion_dot": 0.04716526,
        "meta_mean_motion_ddot": 3.2844e-06,
        "tle_line1": "1 30486U 99025AGY 25346.02955806  .04716526  32844-5  30240-2 0  9999",
        "tle_line2": "2 30486  98.7877  20.0883 0009437 216.4342 143.6300 16.17395034 17436"
      },
      "geometry": {
        "type": "Point",
        "coordinates": [
          9.892938594727179,
          50.21586744636989
        ]
      }
    },
    {
      "type": "Feature",
      "properties": {
        "norad_id": 30489,
        "name": "FENGYUN 1C DEB",
        "group": "fengyun-1c-debris",
        "lat": 3.223964748788585,
        "lon": -178.20061652681423,
        "alt_km": 839.5343261079261,
        "timestamp": "2025-12-12T09:49:09.008271+00:00",
        "meta_object_name": "FENGYUN 1C DEB",
        "meta_object_id": "1999-025AHB",
        "meta_epoch": "2025-12-12T00:46:08.440896",
        "meta_mean_motion": 14.15819323,
        "meta_eccentricity": 0.0138933,
        "meta_inclination": 98.4687,
        "meta_ra_of_asc_node": 0.96,
        "meta_arg_of_pericenter": 267.0911,
        "meta_mean_anomaly": 150.2024,
        "meta_ephemeris_type": 0,
        "meta_classification_type": "U",
        "meta_norad_cat_id": 30489,
        "meta_element_set_no": 999,
        "meta_rev_at_epoch": 97377,
        "meta_bstar": 0.0004151,
        "meta_mean_motion_dot": 8.54e-06,
        "meta_mean_motion_ddot": 0,
        "tle_line1": "1 30489U 99025AHB 25346.03204214  .00000854  00000+0  41510-3 0  9995",
        "tle_line2": "2 30489  98.4687   0.9600 0138933 267.0911 150.2024 14.15819323973770"
      },
      "geometry": {
        "type": "Point",
        "coordinates": [
          -178.20061652681423,
          3.223964748788585
        ]
      }
    },
    {
      "type": "Feature",
      "properties": {
        "norad_id": 30490,
        "name": "FENGYUN 1C DEB",
        "group": "fengyun-1c-debris",
        "lat": -23.25188355108662,
        "lon": -65.5835020990487,
        "alt_km": 482.3967209986731,
        "timestamp": "2025-12-12T09:49:09.008282+00:00",
        "meta_object_name": "FENGYUN 1C DEB",
        "meta_object_id": "1999-025AHC",
        "meta_epoch": "2025-12-12T01:04:46.850016",
        "meta_mean_motion": 15.28283664,
        "meta_eccentricity": 0.0047288,
        "meta_inclination": 98.3318,
        "meta_ra_of_asc_node": 117.6198,
        "meta_arg_of_pericenter": 121.0552,
        "meta_mean_anomaly": 239.5339,
        "meta_ephemeris_type": 0,
        "meta_classification_type": "U",
        "meta_norad_cat_id": 30490,
        "meta_element_set_no": 999,
        "meta_rev_at_epoch": 99485,
        "meta_bstar": 0.0048827,
        "meta_mean_motion_dot": 0.00141357,
        "meta_mean_motion_ddot": 0,
        "tle_line1": "1 30490U 99025AHC 25346.04498669  .00141357  00000+0  48827-2 0  9998",
        "tle_line2": "2 30490  98.3318 117.6198 0047288 121.0552 239.5339 15.28283664994852"
      },
      "geometry": {
        "type": "Point",
        "coordinates": [
          -65.5835020990487,
          -23.25188355108662
        ]
      }
    },
    {
      "type": "Feature",
      "properties": {
        "norad_id": 30492,
        "name": "FENGYUN 1C DEB",
        "group": "fengyun-1c-debris",
        "lat": -65.00675867753225,
        "lon": 155.52761425585078,
        "alt_km": 793.8465630078617,
        "timestamp": "2025-12-12T09:49:09.008292+00:00",
        "meta_object_name": "FENGYUN 1C DEB",
        "meta_object_id": "1999-025AHE",
        "meta_epoch": "2025-12-12T00:24:52.809696",
        "meta_mean_motion": 14.51820031,
        "meta_eccentricity": 0.0094813,
        "meta_inclination": 102.3267,
        "meta_ra_of_asc_node": 2.9294,
        "meta_arg_of_pericenter": 65.0563,
        "meta_mean_anomaly": 296.0432,
        "meta_ephemeris_type": 0,
        "meta_classification_type": "U",
        "meta_norad_cat_id": 30492,
        "meta_element_set_no": 999,
        "meta_rev_at_epoch": 96884,
        "meta_bstar": 0.0045772,
        "meta_mean_motion_dot": 0.00019509,
        "meta_mean_motion_ddot": 0,
        "tle_line1": "1 30492U 99025AHE 25346.01727789  .00019509  00000+0  45772-2 0  9994",
        "tle_line2": "2 30492 102.3267   2.9294 0094813  65.0563 296.0432 14.51820031968843"
      },
      "geometry": {
        "type": "Point",
        "coordinates": [
          155.52761425585078,
          -65.00675867753225
        ]
      }
    },
    {
      "type": "Feature",
      "properties": {
        "norad_id": 30493,
        "name": "FENGYUN 1C DEB",
        "group": "fengyun-1c-debris",
        "lat": -75.32723556334169,
        "lon": -148.06688760528596,
        "alt_km": 866.163610398452,
        "timestamp": "2025-12-12T09:49:09.008303+00:00",
        "meta_object_name": "FENGYUN 1C DEB",
        "meta_object_id": "1999-025AHF",
        "meta_epoch": "2025-12-12T00:36:09.701856",
        "meta_mean_motion": 13.92955715,
        "meta_eccentricity": 0.0181331,
        "meta_inclination": 98.5716,
        "meta_ra_of_asc_node": 176.4064,
        "meta_arg_of_pericenter": 218.785,
        "meta_mean_anomaly": 296.6689,
        "meta_ephemeris_type": 0,
        "meta_classification_type": "U",
        "meta_norad_cat_id": 30493,
        "meta_element_set_no": 999,
        "meta_rev_at_epoch": 95085,
        "meta_bstar": 0.0044093,
        "meta_mean_motion_dot": 6.517e-05,
        "meta_mean_motion_ddot": 0,
        "tle_line1": "1 30493U 99025AHF 25346.02511229  .00006517  00000+0  44093-2 0  9996",
        "tle_line2": "2 30493  98.5716 176.4064 0181331 218.7850 296.6689 13.92955715950853"
      },
      "geometry": {
        "type": "Point",
        "coordinates": [
          -148.06688760528596,
          -75.32723556334169
        ]
      }
    }
  ]
}